NORAD_CAT_ID,OBJECT_NAME,OBJECT_TYPE,EPOCH,MEAN_MOTION,ECCENTRICITY,INCLINATION,RA_OF_ASC_NODE,ARG_OF_PERICENTER,MEAN_ANOMALY,BSTAR,MEAN_MOTION_DOT,MEAN_MOTION_DDOT,TLE_LINE0,TLE_LINE1,TLE_LINE2,SEMIMAJOR_AXIS,PERIOD,APOGEE,PERIGEE,DECAYED
49148.0,STARLINK-3048,PAYLOAD,2024-08-04 15:36:19,14.98335906,0.0003191,70.0007,301.9714,267.1379,92.9414,0.00021519,2.476e-05,0.0,0 STARLINK-3048,1 49148U 21082U   24217.65022891  .00002476  00000-0  21519-3 0  9998,2 49148  70.0007 301.9714 0003191 267.1379  92.9414 14.98335906159288,6950.175,96.107,574.257,569.822,0.0
49148.0,STARLINK-3048,PAYLOAD,2024-08-05 12:26:04,14.98334385,0.0002946,70.0008,299.7814,269.2931,90.789,2.7644e-05,2.37e-06,0.0,0 STARLINK-3048,1 49148U 21082U   24218.51811210  .00000237  00000-0  27644-4 0  9994,2 49148  70.0008 299.7814 0002946 269.2931  90.7890 14.98334385160543,6950.179,96.107,574.092,569.997,0.0
49148.0,STARLINK-3048,PAYLOAD,2024-08-05 15:38:20,14.9833656,0.0003034,70.0004,299.4451,268.5784,91.5028,4.0521e-05,3.91e-06,0.0,0 STARLINK-3048,1 49148U 21082U   24218.65162976  .00000391  00000-0  40521-4 0  9997,2 49148  70.0004 299.4451 0003034 268.5784  91.5028 14.98336560159435,6950.173,96.107,574.146,569.929,0.0
49148.0,STARLINK-3048,PAYLOAD,2024-08-06 04:27:26,14.98324428,0.0002697,70.0012,298.1008,263.6775,96.4077,-0.00010774,-1.378e-05,0.0,0 STARLINK-3048,1 49148U 21082U   24219.18572058 -.00001378  00000-0 -10774-3 0  9996,2 49148  70.0012 298.1008 0002697 263.6775  96.4077 14.98324428160641,6950.21,96.107,573.95,570.201,0.0
49148.0,STARLINK-3048,PAYLOAD,2024-08-06 14:04:15,14.98316762,0.0002717,70.0017,297.0901,269.0148,91.07,-0.00011787,-1.499e-05,0.0,0 STARLINK-3048,1 49148U 21082U   24219.58628897 -.00001499  00000-0 -11787-3 0  9992,2 49148  70.0017 297.0901 0002717 269.0148  91.0700 14.98316762159579,6950.234,96.108,573.987,570.21,0.0
49148.0,STARLINK-3048,PAYLOAD,2024-08-06 15:40:23,14.98318084,0.000269,70.002,296.9211,269.6819,90.4032,-8.2472e-05,-1.076e-05,0.0,0 STARLINK-3048,1 49148U 21082U   24219.65304785 -.00001076  00000-0 -82472-4 0  9998,2 49148  70.0020 296.9211 0002690 269.6819  90.4032 14.98318084159587,6950.23,96.108,573.964,570.225,0.0
49148.0,STARLINK-3048,PAYLOAD,2024-08-07 12:30:06,14.98336452,0.0002871,70.0008,294.7333,269.2024,90.8806,0.00010831,1.2e-05,0.0,0 STARLINK-3048,1 49148U 21082U   24220.52091084  .00001200  00000-0  10831-3 0  9997,2 49148  70.0008 294.7333 0002871 269.2024  90.8806 14.98336452160842,6950.173,96.107,574.033,570.043,0.0
49148.0,STARLINK-3048,PAYLOAD,2024-08-08 14:08:15,14.98339055,0.0002772,70.0011,292.0397,256.0452,104.0399,-5.8943e-06,-1.63e-06,0.0,0 STARLINK-3048,1 49148U 21082U   24221.58906965 -.00000163  00000-0 -58943-5 0  9994,2 49148  70.0011 292.0397 0002772 256.0452 104.0399 14.98339055159874,6950.165,96.106,573.956,570.103,0.0
49148.0,STARLINK-3048,PAYLOAD,2024-08-08 22:08:56,14.98330209,0.0002845,70.0008,291.1982,278.1575,81.9261,0.00012827,1.438e-05,0.0,0 STARLINK-3048,1 49148U 21082U   24221.92287425  .00001438  00000-0  12827-3 0  9998,2 49148  70.0008 291.1982 0002845 278.1575  81.9261 14.98330209159921,6950.192,96.107,574.035,570.08,0.0
49148.0,STARLINK-3048,PAYLOAD,2024-08-09 14:10:16,14.98341653,0.0003205,70.0,289.5136,269.02,91.0592,1.6741e-05,1.07e-06,0.0,0 STARLINK-3048,1 49148U 21082U   24222.59046633  .00000107  00000-0  16741-4 0  9998,2 49148  70.0000 289.5136 0003205 269.0200  91.0592 14.98341653160027,6950.157,96.106,574.249,569.794,0.0
49148.0,STARLINK-3048,PAYLOAD,2024-08-10 04:35:29,14.98325052,0.000292,70.0008,287.9999,264.8125,95.2701,-6.3195e-05,-8.47e-06,0.0,0 STARLINK-3048,1 49148U 21082U   24223.19131797 -.00000847  00000-0 -63195-4 0  9999,2 49148  70.0008 287.9999 0002920 264.8125  95.2701 14.98325052161244,6950.208,96.107,574.103,570.044,0.0
49148.0,STARLINK-3048,PAYLOAD,2024-08-10 12:36:09,14.98331611,0.0002808,70.0005,287.1588,267.0628,93.021,8.338e-06,7e-08,0.0,0 STARLINK-3048,1 49148U 21082U   24223.52511278  .00000007  00000-0  83380-5 0  9997,2 49148  70.0005 287.1588 0002808 267.0628  93.0210 14.98331611161299,6950.188,96.107,574.005,570.101,0.0
49148.0,STARLINK-3048,PAYLOAD,2024-08-10 14:12:17,14.98332568,0.0002988,70.0006,286.9914,270.8442,89.2375,4.9761e-05,5.01e-06,0.0,0 STARLINK-3048,1 49148U 21082U   24223.59187117  .00000501  00000-0  49761-4 0  9998,2 49148  70.0006 286.9914 0002988 270.8442  89.2375 14.98332568160172,6950.185,96.107,574.127,569.973,0.0
49148.0,STARLINK-3048,PAYLOAD,2024-08-11 14:14:18,14.98337255,0.0002869,70.0004,284.4631,270.3497,89.7333,0.00012927,1.45e-05,0.0,0 STARLINK-3048,1 49148U 21082U   24224.59326593  .00001450  00000-0  12927-3 0  9999,2 49148  70.0004 284.4631 0002869 270.3497  89.7333 14.98337255161451,6950.17,96.107,574.029,570.041,0.0
49148.0,STARLINK-3048,PAYLOAD,2024-08-12 14:16:18,14.98346599,0.0002407,70.0004,281.9379,266.1828,93.9056,0.00029185,3.392e-05,0.0,0 STARLINK-3048,1 49148U 21082U   24225.59465329  .00003392  00000-0  29185-3 0  9992,2 49148  70.0004 281.9379 0002407 266.1828  93.9056 14.98346599160472,6950.142,96.106,573.679,570.334,0.0
49148.0,STARLINK-3048,PAYLOAD,2024-08-13 04:41:32,14.98326377,0.000291,69.9999,280.4238,269.1675,90.9151,-0.00010108,-1.299e-05,0.0,0 STARLINK-3048,1 49148U 21082U   24226.19551247 -.00001299  00000-0 -10108-3 0  9995,2 49148  69.9999 280.4238 0002910 269.1675  90.9151 14.98326377161692,6950.204,96.107,574.092,570.047,0.0
49148.0,STARLINK-3048,PAYLOAD,2024-08-13 09:29:57,14.98315988,0.0003013,69.9984,279.9168,270.9404,89.141,-0.00016454,-2.055e-05,0.0,0 STARLINK-3048,1 49148U 21082U   24226.39580088 -.00002055  00000-0 -16454-3 0  9993,2 49148  69.9984 279.9168 0003013 270.9404  89.1410 14.98315988161724,6950.236,96.108,574.195,570.007,0.0
49148.0,STARLINK-3048,PAYLOAD,2024-08-13 20:42:53,14.98322531,0.0002811,69.9992,278.74,270.7294,89.3543,-0.00019169,-2.379e-05,0.0,0 STARLINK-3048,1 49148U 21082U   24226.86312043 -.00002379  00000-0 -19169-3 0  9994,2 49148  69.9992 278.7400 0002811 270.7294  89.3543 14.98322531160662,6950.216,96.107,574.035,570.127,0.0
49148.0,STARLINK-3048,PAYLOAD,2024-08-14 04:43:34,14.983219,0.0003055,69.9988,277.8973,272.1616,87.9193,-0.00015277,-1.915e-05,0.0,0 STARLINK-3048,1 49148U 21082U   24227.19692214 -.00001915  00000-0 -15277-3 0  9993,2 49148  69.9988 277.8973 0003055 272.1616  87.9193 14.98321900161842,6950.218,96.108,574.206,569.96,0.0
49148.0,STARLINK-3048,PAYLOAD,2024-08-14 12:44:14,14.98321854,0.0003332,69.9986,277.0569,273.8921,86.1857,-0.00013174,-1.664e-05,0.0,0 STARLINK-3048,1 49148U 21082U   24227.53072325 -.00001664  00000-0 -13174-3 0  9991,2 49148  69.9986 277.0569 0003332 273.8921  86.1857 14.98321854160764,6950.218,96.108,574.399,569.767,0.0
49148.0,STARLINK-3048,PAYLOAD,2024-08-14 20:44:54,14.98328539,0.0003007,69.9986,276.2154,271.711,88.3705,-0.00018032,-2.244e-05,0.0,0 STARLINK-3048,1 49148U 21082U   24227.86452075 -.00002244  00000-0 -18032-3 0  9994,2 49148  69.9986 276.2154 0003007 271.7110  88.3705 14.98328539160810,6950.197,96.107,574.152,569.972,0.0
49148.0,STARLINK-3048,PAYLOAD,2024-08-15 04:45:35,14.98315072,0.0002985,69.9984,275.3738,269.3512,90.7305,0.00016898,1.923e-05,0.0,0 STARLINK-3048,1 49148U 21082U   24228.19832501  .00001923  00000-0  16898-3 0  9996,2 49148  69.9984 275.3738 0002985 269.3512  90.7305 14.98315072161990,6950.239,96.108,574.179,570.029,0.0
49148.0,STARLINK-3048,PAYLOAD,2024-08-15 09:33:59,14.98316529,0.0003009,69.9983,274.8687,269.1044,90.977,0.00018042,2.06e-05,0.0,0 STARLINK-3048,1 49148U 21082U   24228.39860629  .00002060  00000-0  18042-3 0  9996,2 49148  69.9983 274.8687 0003009 269.1044  90.9770 14.98316529160896,6950.235,96.108,574.191,570.008,0.0
49148.0,STARLINK-3048,PAYLOAD,2024-08-16 04:47:36,14.98324828,0.0003043,69.9982,272.8483,269.152,90.929,0.00025492,2.95e-05,0.0,0 STARLINK-3048,1 49148U 21082U   24229.19972532  .00002950  00000-0  25492-3 0  9997,2 49148  69.9982 272.8483 0003043 269.1520  90.9290 14.98324828162142,6950.209,96.107,574.189,569.959,0.0
49148.0,STARLINK-3048,PAYLOAD,2024-08-16 09:36:00,14.9832887,0.0003056,69.9982,272.3431,268.7724,91.3085,0.00026149,3.028e-05,0.0,0 STARLINK-3048,1 49148U 21082U   24229.40000454  .00003028  00000-0  26149-3 0  9993,2 49148  69.9982 272.3431 0003056 268.7724  91.3085 14.98328870161041,6950.196,96.107,574.185,569.937,0.0
49148.0,STARLINK-3048,PAYLOAD,2024-08-17 04:49:36,14.98340571,0.0003054,69.9982,270.323,268.5215,91.5594,0.00026975,3.128e-05,0.0,0 STARLINK-3048,1 49148U 21082U   24230.20111737  .00003128  00000-0  26975-3 0  9998,2 49148  69.9982 270.3230 0003054 268.5215  91.5594 14.98340571162294,6950.16,96.106,574.148,569.903,0.0
49148.0,STARLINK-3048,PAYLOAD,2024-08-17 08:01:52,14.98342445,0.0003053,69.9982,269.9864,268.5004,91.5805,0.00029776,3.463e-05,0.0,0 STARLINK-3048,1 49148U 21082U   24230.33463630  .00003463  00000-0  29776-3 0  9998,2 49148  69.9982 269.9864 0003053 268.5004  91.5805 14.98342445161180,6950.154,96.106,574.141,569.898,0.0
49148.0,STARLINK-3048,PAYLOAD,2024-08-18 04:51:38,14.98329643,0.0002785,69.9988,267.7978,269.1206,90.9634,-4.1188e-05,-5.84e-06,0.0,0 STARLINK-3048,1 49148U 21082U   24231.20252661 -.00000584  00000-0 -41188-4 0  9990,2 49148  69.9988 267.7978 0002785 269.1206  90.9634 14.98329643162448,6950.194,96.107,573.995,570.123,0.0
49148.0,STARLINK-3048,PAYLOAD,2024-08-18 12:52:18,14.98325197,0.0003288,69.9981,266.9562,276.5341,83.5444,-0.00013086,-1.654e-05,0.0,0 STARLINK-3048,1 49148U 21082U   24231.53633049 -.00001654  00000-0 -13086-3 0  9993,2 49148  69.9981 266.9562 0003288 276.5341  83.5444 14.98325197162494,6950.208,96.107,574.358,569.788,0.0
49148.0,STARLINK-3048,PAYLOAD,2024-08-19 04:53:39,14.98329332,0.0003142,69.9979,265.2728,268.571,91.509,-9.7674e-05,-1.258e-05,0.0,0 STARLINK-3048,1 49148U 21082U   24232.20392729 -.00001258  00000-0 -97674-4 0  9991,2 49148  69.9979 265.2728 0003142 268.5710  91.5090 14.98329332162599,6950.195,96.107,574.244,569.876,0.0
